1 41862U 16069D   17345.63151870 +.00000073 +00000-0 +00000-0 0  9994
2 41862 054.5746 187.4056 0000744 248.6405 111.4165 01.70473431006633
